STARLINK-2322           
1 47791U 21018E   26068.73707613 -.00002878  00000+0 -85114-4 0  9995
2 47791  53.1594 242.7255 0001012  92.6426 267.4691 15.30189436276748
HERMES-3                
1 63835U 25052BR  26068.93751242  .00020316  00000+0  69958-3 0  9995
2 63835  97.3987 324.6131 0007993 112.9583 247.2502 15.30039785 54863
